KOREASAT 6              
1 37265U 10070B   26064.54360118 -.00000120  00000+0  00000+0 0  9999
2 37265   0.0307 255.5616 0002395  81.0303 182.2302  1.00269527 55739
BEIDOU-2 IGSO-3         
1 37384U 11013A   26058.90884667 -.00000154  00000+0  00000+0 0  9999
2 37384  62.2642  41.1818 0035029 190.8154 358.7681  1.00294022 54567
INTELSAT 28 (IS-28)     
1 37392U 11016A   26065.18651661 -.00000230  00000+0  00000+0 0  9990
2 37392   1.5399  83.9610 0004626 261.6592 213.7252  1.00272064 52257
YAHSAT 1A               
1 37393U 11016B   26064.66493507  .00000094  00000+0  00000+0 0  9993
2 37393   0.0062 136.1027 0003655 215.8894 103.2598  1.00272532 41365
SBIRS GEO-1 (USA 230)   
1 37481U 11019A   26065.16392161  .00000096  00000+0  00000+0 0  9996
2 37481   4.3097  53.0939 0002322 290.7052 290.9016  1.00272541 54368
TELSTAR 14R             
1 37602U 11021A   26064.49940098 -.00000288  00000+0  00000+0 0  9991
2 37602   0.0294 257.9205 0002380  93.2701 288.8177  1.00272740 54799
GSAT-8                  
1 37605U 11022A   26065.16461495  .00000080  00000+0  00000+0 0  9998
2 37605   1.8647  83.1349 0007200 216.1771 338.8878  1.00273098 52182
ST-2                    
1 37606U 11022B   26065.09987466 -.00000218  00000+0  00000+0 0  9996
2 37606   0.0161 219.3028 0002023 139.4306 289.0282  1.00278595 54243
ZHONGXING-10            
1 37677U 11026A   26065.10322527 -.00000192  00000+0  00000+0 0  9992
2 37677   0.7806  85.5526 0002720 265.7171 295.1697  1.00268958 53965
SES-3                   
1 37748U 11035A   26065.18377969 -.00000107  00000+0  00000+0 0  9995
2 37748   1.0603  84.2843 0003582 269.0565 133.7161  1.00272342 53563
KAZSAT-2                
1 37749U 11035B   26064.67169510 -.00000204  00000+0  00000+0 0  9998
2 37749   0.0198 128.3349 0000440 236.5800 126.7978  1.00268670 52368
BEIDOU-2 IGSO-4         
1 37763U 11038A   26064.72437745 -.00000100  00000+0  00000+0 0  9996
2 37763  54.5899 166.6081 0154581 230.9953 121.0281  1.00265577 53603
ASTRA 1N                
1 37775U 11041A   26064.58702139  .00000113  00000+0  00000+0 0  9992
2 37775   0.0703  22.8506 0004155 356.9516  14.0459  1.00274542 43481
BSAT-3C (JCSAT-110R)    
1 37776U 11041B   26065.03288104  .00000000  00000+0  00000+0 0  9990
2 37776   0.0138 118.3847 0001116 320.9521 206.2278  1.00264840 49439
PAKSAT-1R               
1 37779U 11042A   26065.22669632  .00000149  00000+0  00000+0 0  9998
2 37779   0.4219  85.7411 0002706 308.4091 249.4871  1.00279563 53441
SES-2                   
1 37809U 11049A   26065.17822755 -.00000201  00000+0  00000+0 0  9990
2 37809   0.0237  76.2187 0002909 270.4439 154.3852  1.00271880 52935
ARABSAT-5C              
1 37810U 11049B   26065.22900856  .00000118  00000+0  00000+0 0  9993
2 37810   0.0547 357.0209 0002792 346.7197 282.6558  1.00269548 53009
