[{"OBJECT_NAME":"KOREASAT 6","OBJECT_ID":"2010-070B","EPOCH":"2026-03-05T13:02:47.141952","MEAN_MOTION":1.00269527,"ECCENTRICITY":0.0002395,"INCLINATION":0.0307,"RA_OF_ASC_NODE":255.5616,"ARG_OF_PERICENTER":81.0303,"MEAN_ANOMALY":182.2302,"EPHEMERIS_TYPE":0,"CLASSIFICATION_TYPE":"U","NORAD_CAT_ID":37265,"ELEMENT_SET_NO":999,"REV_AT_EPOCH":5573,"BSTAR":0,"MEAN_MOTION_DOT":-1.2e-6,"MEAN_MOTION_DDOT":0},{"OBJECT_NAME":"BEIDOU-2 IGSO-3","OBJECT_ID":"2011-013A","EPOCH":"2026-02-27T21:48:44.352288","MEAN_MOTION":1.00294022,"ECCENTRICITY":0.00350296,"INCLINATION":62.2642,"RA_OF_ASC_NODE":41.1818,"ARG_OF_PERICENTER":190.8154,"MEAN_ANOMALY":358.7681,"EPHEMERIS_TYPE":0,"CLASSIFICATION_TYPE":"U","NORAD_CAT_ID":37384,"ELEMENT_SET_NO":999,"REV_AT_EPOCH":5456,"BSTAR":0,"MEAN_MOTION_DOT":-1.54e-6,"MEAN_MOTION_DDOT":0},{"OBJECT_NAME":"INTELSAT 28 (IS-28)","OBJECT_ID":"2011-016A","EPOCH":"2026-03-06T04:28:35.035104","MEAN_MOTION":1.00272064,"ECCENTRICITY":0.00046269,"INCLINATION":1.5399,"RA_OF_ASC_NODE":83.961,"ARG_OF_PERICENTER":261.6592,"MEAN_ANOMALY":213.7252,"EPHEMERIS_TYPE":0,"CLASSIFICATION_TYPE":"U","NORAD_CAT_ID":37392,"ELEMENT_SET_NO":999,"REV_AT_EPOCH":5225,"BSTAR":0,"MEAN_MOTION_DOT":-2.3e-6,"MEAN_MOTION_DDOT":0},{"OBJECT_NAME":"YAHSAT 1A","OBJECT_ID":"2011-016B","EPOCH":"2026-03-05T15:57:30.390048","MEAN_MOTION":1.00272532,"ECCENTRICITY":0.00036552,"INCLINATION":0.0062,"RA_OF_ASC_NODE":136.1027,"ARG_OF_PERICENTER":215.8894,"MEAN_ANOMALY":103.2598,"EPHEMERIS_TYPE":0,"CLASSIFICATION_TYPE":"U","NORAD_CAT_ID":37393,"ELEMENT_SET_NO":999,"REV_AT_EPOCH":4136,"BSTAR":0,"MEAN_MOTION_DOT":9.4e-7,"MEAN_MOTION_DDOT":0},{"OBJECT_NAME":"SBIRS GEO-1 (USA 230)","OBJECT_ID":"2011-019A","EPOCH":"2026-03-06T03:56:02.827104","MEAN_MOTION":1.00272541,"ECCENTRICITY":0.00023224,"INCLINATION":4.3097,"RA_OF_ASC_NODE":53.0939,"ARG_OF_PERICENTER":290.7052,"MEAN_ANOMALY":290.9016,"EPHEMERIS_TYPE":0,"CLASSIFICATION_TYPE":"U","NORAD_CAT_ID":37481,"ELEMENT_SET_NO":999,"REV_AT_EPOCH":5436,"BSTAR":0,"MEAN_MOTION_DOT":9.6e-7,"MEAN_MOTION_DDOT":0},{"OBJECT_NAME":"TELSTAR 14R","OBJECT_ID":"2011-021A","EPOCH":"2026-03-05T11:59:08.244672","MEAN_MOTION":1.0027274,"ECCENTRICITY":0.000238,"INCLINATION":0.0294,"RA_OF_ASC_NODE":257.9205,"ARG_OF_PERICENTER":93.2701,"MEAN_ANOMALY":288.8177,"EPHEMERIS_TYPE":0,"CLASSIFICATION_TYPE":"U","NORAD_CAT_ID":37602,"ELEMENT_SET_NO":999,"REV_AT_EPOCH":5479,"BSTAR":0,"MEAN_MOTION_DOT":-2.88e-6,"MEAN_MOTION_DDOT":0},{"OBJECT_NAME":"GSAT-8","OBJECT_ID":"2011-022A","EPOCH":"2026-03-06T03:57:02.731680","MEAN_MOTION":1.00273098,"ECCENTRICITY":0.00072005,"INCLINATION":1.8647,"RA_OF_ASC_NODE":83.1349,"ARG_OF_PERICENTER":216.1771,"MEAN_ANOMALY":338.8878,"EPHEMERIS_TYPE":0,"CLASSIFICATION_TYPE":"U","NORAD_CAT_ID":37605,"ELEMENT_SET_NO":999,"REV_AT_EPOCH":5218,"BSTAR":0,"MEAN_MOTION_DOT":8.0e-7,"MEAN_MOTION_DDOT":0},{"OBJECT_NAME":"ST-2","OBJECT_ID":"2011-022B","EPOCH":"2026-03-06T02:23:49.170624","MEAN_MOTION":1.00278595,"ECCENTRICITY":0.00020236,"INCLINATION":0.0161,"RA_OF_ASC_NODE":219.3028,"ARG_OF_PERICENTER":139.4306,"MEAN_ANOMALY":289.0282,"EPHEMERIS_TYPE":0,"CLASSIFICATION_TYPE":"U","NORAD_CAT_ID":37606,"ELEMENT_SET_NO":999,"REV_AT_EPOCH":5424,"BSTAR":0,"MEAN_MOTION_DOT":-2.18e-6,"MEAN_MOTION_DDOT":0},{"OBJECT_NAME":"ZHONGXING-10","OBJECT_ID":"2011-026A","EPOCH":"2026-03-06T02:28:38.663328","MEAN_MOTION":1.00268958,"ECCENTRICITY":0.00027206,"INCLINATION":0.7806,"RA_OF_ASC_NODE":85.5526,"ARG_OF_PERICENTER":265.7171,"MEAN_ANOMALY":295.1697,"EPHEMERIS_TYPE":0,"CLASSIFICATION_TYPE":"U","NORAD_CAT_ID":37677,"ELEMENT_SET_NO":999,"REV_AT_EPOCH":5396,"BSTAR":0,"MEAN_MOTION_DOT":-1.92e-6,"MEAN_MOTION_DDOT":0},{"OBJECT_NAME":"SES-3","OBJECT_ID":"2011-035A","EPOCH":"2026-03-06T04:24:38.565216","MEAN_MOTION":1.00272342,"ECCENTRICITY":0.00035828,"INCLINATION":1.0603,"RA_OF_ASC_NODE":84.2843,"ARG_OF_PERICENTER":269.0565,"MEAN_ANOMALY":133.7161,"EPHEMERIS_TYPE":0,"CLASSIFICATION_TYPE":"U","NORAD_CAT_ID":37748,"ELEMENT_SET_NO":999,"REV_AT_EPOCH":5356,"BSTAR":0,"MEAN_MOTION_DOT":-1.07e-6,"MEAN_MOTION_DDOT":0},{"OBJECT_NAME":"KAZSAT-2","OBJECT_ID":"2011-035B","EPOCH":"2026-03-05T16:07:14.456640","MEAN_MOTION":1.0026867,"ECCENTRICITY":4.408e-5,"INCLINATION":0.0198,"RA_OF_ASC_NODE":128.3349,"ARG_OF_PERICENTER":236.58,"MEAN_ANOMALY":126.7978,"EPHEMERIS_TYPE":0,"CLASSIFICATION_TYPE":"U","NORAD_CAT_ID":37749,"ELEMENT_SET_NO":999,"REV_AT_EPOCH":5236,"BSTAR":0,"MEAN_MOTION_DOT":-2.04e-6,"MEAN_MOTION_DDOT":0},{"OBJECT_NAME":"BEIDOU-2 IGSO-4","OBJECT_ID":"2011-038A","EPOCH":"2026-03-05T17:23:06.211680","MEAN_MOTION":1.00265577,"ECCENTRICITY":0.01545816,"INCLINATION":54.5899,"RA_OF_ASC_NODE":166.6081,"ARG_OF_PERICENTER":230.9953,"MEAN_ANOMALY":121.0281,"EPHEMERIS_TYPE":0,"CLASSIFICATION_TYPE":"U","NORAD_CAT_ID":37763,"ELEMENT_SET_NO":999,"REV_AT_EPOCH":5360,"BSTAR":0,"MEAN_MOTION_DOT":-1.0e-6,"MEAN_MOTION_DDOT":0},{"OBJECT_NAME":"ASTRA 1N","OBJECT_ID":"2011-041A","EPOCH":"2026-03-05T14:05:18.648096","MEAN_MOTION":1.00274542,"ECCENTRICITY":0.0004155,"INCLINATION":0.0703,"RA_OF_ASC_NODE":22.8506,"ARG_OF_PERICENTER":356.9516,"MEAN_ANOMALY":14.0459,"EPHEMERIS_TYPE":0,"CLASSIFICATION_TYPE":"U","NORAD_CAT_ID":37775,"ELEMENT_SET_NO":999,"REV_AT_EPOCH":4348,"BSTAR":0,"MEAN_MOTION_DOT":1.13e-6,"MEAN_MOTION_DDOT":0},{"OBJECT_NAME":"BSAT-3C (JCSAT-110R)","OBJECT_ID":"2011-041B","EPOCH":"2026-03-06T00:47:20.921856","MEAN_MOTION":1.0026484,"ECCENTRICITY":0.00011162,"INCLINATION":0.0138,"RA_OF_ASC_NODE":118.3847,"ARG_OF_PERICENTER":320.9521,"MEAN_ANOMALY":206.2278,"EPHEMERIS_TYPE":0,"CLASSIFICATION_TYPE":"U","NORAD_CAT_ID":37776,"ELEMENT_SET_NO":999,"REV_AT_EPOCH":4943,"BSTAR":0,"MEAN_MOTION_DOT":0,"MEAN_MOTION_DDOT":0},{"OBJECT_NAME":"PAKSAT-1R","OBJECT_ID":"2011-042A","EPOCH":"2026-03-06T05:26:26.562048","MEAN_MOTION":1.00279563,"ECCENTRICITY":0.00027061,"INCLINATION":0.4219,"RA_OF_ASC_NODE":85.7411,"ARG_OF_PERICENTER":308.4091,"MEAN_ANOMALY":249.4871,"EPHEMERIS_TYPE":0,"CLASSIFICATION_TYPE":"U","NORAD_CAT_ID":37779,"ELEMENT_SET_NO":999,"REV_AT_EPOCH":5344,"BSTAR":0,"MEAN_MOTION_DOT":1.49e-6,"MEAN_MOTION_DDOT":0},{"OBJECT_NAME":"SES-2","OBJECT_ID":"2011-049A","EPOCH":"2026-03-06T04:16:38.860320","MEAN_MOTION":1.0027188,"ECCENTRICITY":0.00029092,"INCLINATION":0.0237,"RA_OF_ASC_NODE":76.2187,"ARG_OF_PERICENTER":270.4439,"MEAN_ANOMALY":154.3852,"EPHEMERIS_TYPE":0,"CLASSIFICATION_TYPE":"U","NORAD_CAT_ID":37809,"ELEMENT_SET_NO":999,"REV_AT_EPOCH":5293,"BSTAR":0,"MEAN_MOTION_DOT":-2.01e-6,"MEAN_MOTION_DDOT":0},{"OBJECT_NAME":"ARABSAT-5C","OBJECT_ID":"2011-049B","EPOCH":"2026-03-06T05:29:46.339584","MEAN_MOTION":1.00269548,"ECCENTRICITY":0.00027928,"INCLINATION":0.0547,"RA_OF_ASC_NODE":357.0209,"ARG_OF_PERICENTER":346.7197,"MEAN_ANOMALY":282.6558,"EPHEMERIS_TYPE":0,"CLASSIFICATION_TYPE":"U","NORAD_CAT_ID":37810,"ELEMENT_SET_NO":999,"REV_AT_EPOCH":5300,"BSTAR":0,"MEAN_MOTION_DOT":1.18e-6,"MEAN_MOTION_DDOT":0}]
